[{"OBJECT_NAME":"ONEWEB-0087","OBJECT_ID":"2020-020AD","EPOCH":"2026-01-26T02:51:45.448128","MEAN_MOTION":13.11416713,"ECCENTRICITY":0.00017027,"INCLINATION":87.8832,"RA_OF_ASC_NODE":49.2963,"ARG_OF_PERICENTER":81.0398,"MEAN_ANOMALY":279.0923,"EPHEMERIS_TYPE":0,"CLASSIFICATION_TYPE":"U","NORAD_CAT_ID":45451,"ELEMENT_SET_NO":999,"REV_AT_EPOCH":28396,"BSTAR":0.0013458343,"MEAN_MOTION_DOT":4.9e-6,"MEAN_MOTION_DDOT":0},{"OBJECT_NAME":"ONEWEB-0082","OBJECT_ID":"2020-020AE","EPOCH":"2026-01-26T02:47:03.705504","MEAN_MOTION":13.11417772,"ECCENTRICITY":0.00016382,"INCLINATION":87.8826,"RA_OF_ASC_NODE":49.3225,"ARG_OF_PERICENTER":85.5703,"MEAN_ANOMALY":274.5612,"EPHEMERIS_TYPE":0,"CLASSIFICATION_TYPE":"U","NORAD_CAT_ID":45452,"ELEMENT_SET_NO":999,"REV_AT_EPOCH":28405,"BSTAR":0.00056569978,"MEAN_MOTION_DOT":2.13e-6,"MEAN_MOTION_DDOT":0},{"OBJECT_NAME":"ONEWEB-0050","OBJECT_ID":"2020-020AF","EPOCH":"2026-01-26T02:37:35.805216","MEAN_MOTION":14.89813001,"ECCENTRICITY":0.00054741,"INCLINATION":88.9208,"RA_OF_ASC_NODE":252.586,"ARG_OF_PERICENTER":109.2433,"MEAN_ANOMALY":250.9388,"EPHEMERIS_TYPE":0,"CLASSIFICATION_TYPE":"U","NORAD_CAT_ID":45453,"ELEMENT_SET_NO":999,"REV_AT_EPOCH":31922,"BSTAR":0.00042639576,"MEAN_MOTION_DOT":4.112e-5,"MEAN_MOTION_DDOT":0},{"OBJECT_NAME":"ONEWEB-0034","OBJECT_ID":"2020-020AG","EPOCH":"2026-01-26T01:27:43.783488","MEAN_MOTION":13.11416455,"ECCENTRICITY":0.00017752,"INCLINATION":87.8819,"RA_OF_ASC_NODE":49.3422,"ARG_OF_PERICENTER":92.2774,"MEAN_ANOMALY":267.8557,"EPHEMERIS_TYPE":0,"CLASSIFICATION_TYPE":"U","NORAD_CAT_ID":45454,"ELEMENT_SET_NO":999,"REV_AT_EPOCH":28396,"BSTAR":0.0006006849,"MEAN_MOTION_DOT":2.26e-6,"MEAN_MOTION_DDOT":0},{"OBJECT_NAME":"ONEWEB-0060","OBJECT_ID":"2020-020AH","EPOCH":"2026-01-26T02:36:05.000544","MEAN_MOTION":13.11418072,"ECCENTRICITY":0.00015204,"INCLINATION":87.8813,"RA_OF_ASC_NODE":49.3466,"ARG_OF_PERICENTER":57.4468,"MEAN_ANOMALY":302.6806,"EPHEMERIS_TYPE":0,"CLASSIFICATION_TYPE":"U","NORAD_CAT_ID":45455,"ELEMENT_SET_NO":999,"REV_AT_EPOCH":28392,"BSTAR":0.00042596984,"MEAN_MOTION_DOT":1.64e-6,"MEAN_MOTION_DDOT":0},{"OBJECT_NAME":"ONEWEB-0086","OBJECT_ID":"2020-020AJ","EPOCH":"2026-01-26T02:05:32.475552","MEAN_MOTION":13.11416527,"ECCENTRICITY":0.00010664,"INCLINATION":87.8815,"RA_OF_ASC_NODE":49.335,"ARG_OF_PERICENTER":83.6492,"MEAN_ANOMALY":276.4757,"EPHEMERIS_TYPE":0,"CLASSIFICATION_TYPE":"U","NORAD_CAT_ID":45456,"ELEMENT_SET_NO":999,"REV_AT_EPOCH":28398,"BSTAR":-0.0016382441,"MEAN_MOTION_DOT":-5.68e-6,"MEAN_MOTION_DDOT":0},{"OBJECT_NAME":"ONEWEB-0088","OBJECT_ID":"2020-020AK","EPOCH":"2026-01-26T01:33:49.009248","MEAN_MOTION":13.11414089,"ECCENTRICITY":0.00020363,"INCLINATION":87.8831,"RA_OF_ASC_NODE":49.2992,"ARG_OF_PERICENTER":88.2137,"MEAN_ANOMALY":271.9224,"EPHEMERIS_TYPE":0,"CLASSIFICATION_TYPE":"U","NORAD_CAT_ID":45457,"ELEMENT_SET_NO":999,"REV_AT_EPOCH":28391,"BSTAR":0.00044404884,"MEAN_MOTION_DOT":1.7e-6,"MEAN_MOTION_DDOT":0},{"OBJECT_NAME":"ONEWEB-0102","OBJECT_ID":"2020-100A","EPOCH":"2026-01-25T22:50:22.949664","MEAN_MOTION":13.1244339,"ECCENTRICITY":0.00015175,"INCLINATION":87.8932,"RA_OF_ASC_NODE":18.9197,"ARG_OF_PERICENTER":86.8238,"MEAN_ANOMALY":273.3064,"EPHEMERIS_TYPE":0,"CLASSIFICATION_TYPE":"U","NORAD_CAT_ID":47258,"ELEMENT_SET_NO":999,"REV_AT_EPOCH":24607,"BSTAR":0.00050638668,"MEAN_MOTION_DOT":1.95e-6,"MEAN_MOTION_DDOT":0},{"OBJECT_NAME":"ONEWEB-0109","OBJECT_ID":"2020-100B","EPOCH":"2026-01-25T23:02:34.851840","MEAN_MOTION":13.12438482,"ECCENTRICITY":0.00018577,"INCLINATION":87.8947,"RA_OF_ASC_NODE":18.8891,"ARG_OF_PERICENTER":92.8251,"MEAN_ANOMALY":267.309,"EPHEMERIS_TYPE":0,"CLASSIFICATION_TYPE":"U","NORAD_CAT_ID":47259,"ELEMENT_SET_NO":999,"REV_AT_EPOCH":24590,"BSTAR":0.0051065594,"MEAN_MOTION_DOT":1.85e-5,"MEAN_MOTION_DDOT":0},{"OBJECT_NAME":"ONEWEB-0110","OBJECT_ID":"2020-100C","EPOCH":"2026-01-26T05:10:56.666496","MEAN_MOTION":13.12441466,"ECCENTRICITY":0.0001492,"INCLINATION":87.8938,"RA_OF_ASC_NODE":18.8234,"ARG_OF_PERICENTER":81.4612,"MEAN_ANOMALY":278.6686,"EPHEMERIS_TYPE":0,"CLASSIFICATION_TYPE":"U","NORAD_CAT_ID":47260,"ELEMENT_SET_NO":999,"REV_AT_EPOCH":24610,"BSTAR":-0.00075456203,"MEAN_MOTION_DOT":-2.59e-6,"MEAN_MOTION_DDOT":0},{"OBJECT_NAME":"ONEWEB-0111","OBJECT_ID":"2020-100D","EPOCH":"2026-01-26T05:54:50.135904","MEAN_MOTION":13.12443073,"ECCENTRICITY":0.00017855,"INCLINATION":87.8939,"RA_OF_ASC_NODE":18.8357,"ARG_OF_PERICENTER":82.7688,"MEAN_ANOMALY":277.3643,"EPHEMERIS_TYPE":0,"CLASSIFICATION_TYPE":"U","NORAD_CAT_ID":47261,"ELEMENT_SET_NO":999,"REV_AT_EPOCH":24594,"BSTAR":-0.0012657281,"MEAN_MOTION_DOT":-4.43e-6,"MEAN_MOTION_DDOT":0},{"OBJECT_NAME":"ONEWEB-0114","OBJECT_ID":"2020-100E","EPOCH":"2026-01-26T04:48:59.519232","MEAN_MOTION":13.12441531,"ECCENTRICITY":0.00019042,"INCLINATION":87.8939,"RA_OF_ASC_NODE":18.8401,"ARG_OF_PERICENTER":97.7176,"MEAN_ANOMALY":262.4169,"EPHEMERIS_TYPE":0,"CLASSIFICATION_TYPE":"U","NORAD_CAT_ID":47262,"ELEMENT_SET_NO":999,"REV_AT_EPOCH":24589,"BSTAR":0.00038621348,"MEAN_MOTION_DOT":1.52e-6,"MEAN_MOTION_DDOT":0},{"OBJECT_NAME":"ONEWEB-0117","OBJECT_ID":"2020-100F","EPOCH":"2026-01-25T23:07:27.878304","MEAN_MOTION":13.12443038,"ECCENTRICITY":0.00017537,"INCLINATION":87.8936,"RA_OF_ASC_NODE":18.8828,"ARG_OF_PERICENTER":86.9454,"MEAN_ANOMALY":273.1875,"EPHEMERIS_TYPE":0,"CLASSIFICATION_TYPE":"U","NORAD_CAT_ID":47263,"ELEMENT_SET_NO":999,"REV_AT_EPOCH":24587,"BSTAR":0.001125316,"MEAN_MOTION_DOT":4.18e-6,"MEAN_MOTION_DDOT":0},{"OBJECT_NAME":"ONEWEB-0118","OBJECT_ID":"2020-100G","EPOCH":"2026-01-26T05:25:35.805504","MEAN_MOTION":13.12443044,"ECCENTRICITY":0.00021141,"INCLINATION":87.8941,"RA_OF_ASC_NODE":18.8313,"ARG_OF_PERICENTER":93.135,"MEAN_ANOMALY":267.002,"EPHEMERIS_TYPE":0,"CLASSIFICATION_TYPE":"U","NORAD_CAT_ID":47264,"ELEMENT_SET_NO":999,"REV_AT_EPOCH":24610,"BSTAR":-0.00092959325,"MEAN_MOTION_DOT":-3.22e-6,"MEAN_MOTION_DDOT":0},{"OBJECT_NAME":"ONEWEB-0119","OBJECT_ID":"2020-100H","EPOCH":"2026-01-25T22:43:03.255744","MEAN_MOTION":13.12444263,"ECCENTRICITY":0.00017952,"INCLINATION":87.8931,"RA_OF_ASC_NODE":18.917,"ARG_OF_PERICENTER":87.5024,"MEAN_ANOMALY":272.631,"EPHEMERIS_TYPE":0,"CLASSIFICATION_TYPE":"U","NORAD_CAT_ID":47265,"ELEMENT_SET_NO":999,"REV_AT_EPOCH":24604,"BSTAR":-0.00017489162,"MEAN_MOTION_DOT":-5.0e-7,"MEAN_MOTION_DDOT":0},{"OBJECT_NAME":"ONEWEB-0120","OBJECT_ID":"2020-100J","EPOCH":"2026-01-26T04:46:46.071840","MEAN_MOTION":13.12442107,"ECCENTRICITY":0.00017781,"INCLINATION":87.8929,"RA_OF_ASC_NODE":18.8678,"ARG_OF_PERICENTER":90.3818,"MEAN_ANOMALY":269.7514,"EPHEMERIS_TYPE":0,"CLASSIFICATION_TYPE":"U","NORAD_CAT_ID":47266,"ELEMENT_SET_NO":999,"REV_AT_EPOCH":24610,"BSTAR":0.00106276,"MEAN_MOTION_DOT":3.95e-6,"MEAN_MOTION_DDOT":0},{"OBJECT_NAME":"ONEWEB-0121","OBJECT_ID":"2020-100K","EPOCH":"2026-01-26T06:19:16.144320","MEAN_MOTION":13.12443392,"ECCENTRICITY":0.00016467,"INCLINATION":87.8939,"RA_OF_ASC_NODE":18.8272,"ARG_OF_PERICENTER":81.1689,"MEAN_ANOMALY":278.9626,"EPHEMERIS_TYPE":0,"CLASSIFICATION_TYPE":"U","NORAD_CAT_ID":47267,"ELEMENT_SET_NO":999,"REV_AT_EPOCH":24602,"BSTAR":0.0010763797,"MEAN_MOTION_DOT":4.0e-6,"MEAN_MOTION_DDOT":0}]
