ONEWEB-0087             
1 45451U 20020AD  26026.11927602  .00000490  00000+0  13458-2 0  9992
2 45451  87.8832  49.2963 0001702  81.0398 279.0923 13.11416713283967
ONEWEB-0082             
1 45452U 20020AE  26026.11601511  .00000213  00000+0  56570-3 0  9997
2 45452  87.8826  49.3225 0001638  85.5703 274.5612 13.11417772284052
ONEWEB-0050             
1 45453U 20020AF  26026.10944219  .00004112  00000+0  42640-3 0  9997
2 45453  88.9208 252.5860 0005474 109.2433 250.9388 14.89813001319225
ONEWEB-0034             
1 45454U 20020AG  26026.06092342  .00000226  00000+0  60068-3 0  9990
2 45454  87.8819  49.3422 0001775  92.2774 267.8557 13.11416455283969
ONEWEB-0060             
1 45455U 20020AH  26026.10839121  .00000164  00000+0  42597-3 0  9998
2 45455  87.8813  49.3466 0001520  57.4468 302.6806 13.11418072283921
ONEWEB-0086             
1 45456U 20020AJ  26026.08718143 -.00000568  00000+0 -16382-2 0  9998
2 45456  87.8815  49.3350 0001066  83.6492 276.4757 13.11416527283981
ONEWEB-0088             
1 45457U 20020AK  26026.06515057  .00000170  00000+0  44405-3 0  9991
2 45457  87.8831  49.2992 0002036  88.2137 271.9224 13.11414089283919
ONEWEB-0102             
1 47258U 20100A   26025.95165451  .00000195  00000+0  50639-3 0  9990
2 47258  87.8932  18.9197 0001517  86.8238 273.3064 13.12443390246073
ONEWEB-0109             
1 47259U 20100B   26025.96012560  .00001850  00000+0  51066-2 0  9997
2 47259  87.8947  18.8891 0001857  92.8251 267.3090 13.12438482245908
ONEWEB-0110             
1 47260U 20100C   26026.21593364 -.00000259  00000+0 -75456-3 0  9998
2 47260  87.8938  18.8234 0001492  81.4612 278.6686 13.12441466246106
ONEWEB-0111             
1 47261U 20100D   26026.24641361 -.00000443  00000+0 -12657-2 0  9991
2 47261  87.8939  18.8357 0001785  82.7688 277.3643 13.12443073245942
ONEWEB-0114             
1 47262U 20100E   26026.20068888  .00000152  00000+0  38621-3 0  9990
2 47262  87.8939  18.8401 0001904  97.7176 262.4169 13.12441531245893
ONEWEB-0117             
1 47263U 20100F   26025.96351711  .00000418  00000+0  11253-2 0  9999
2 47263  87.8936  18.8828 0001753  86.9454 273.1875 13.12443038245870
ONEWEB-0118             
1 47264U 20100G   26026.22610886 -.00000322  00000+0 -92959-3 0  9990
2 47264  87.8941  18.8313 0002114  93.1350 267.0020 13.12443044246101
ONEWEB-0119             
1 47265U 20100H   26025.94656546 -.00000050  00000+0 -17489-3 0  9995
2 47265  87.8931  18.9170 0001795  87.5024 272.6310 13.12444263246043
ONEWEB-0120             
1 47266U 20100J   26026.19914435  .00000395  00000+0  10628-2 0  9995
2 47266  87.8929  18.8678 0001778  90.3818 269.7514 13.12442107246102
ONEWEB-0121             
1 47267U 20100K   26026.26338130  .00000400  00000+0  10764-2 0  9994
2 47267  87.8939  18.8272 0001646  81.1689 278.9626 13.12443392246026
